[{"OBJECT_NAME":"STARLINK-30438","OBJECT_ID":"2023-156H","EPOCH":"2026-03-09T06:11:59.563392","MEAN_MOTION":15.30193853,"ECCENTRICITY":0.00011599,"INCLINATION":53.1606,"RA_OF_ASC_NODE":80.1118,"ARG_OF_PERICENTER":78.5335,"MEAN_ANOMALY":281.5796,"EPHEMERIS_TYPE":0,"CLASSIFICATION_TYPE":"U","NORAD_CAT_ID":58035,"ELEMENT_SET_NO":999,"REV_AT_EPOCH":13620,"BSTAR":-1.324431e-6,"MEAN_MOTION_DOT":-3.98e-6,"MEAN_MOTION_DDOT":0},{"OBJECT_NAME":"COSMOS 1782","OBJECT_ID":"1986-074A","EPOCH":"2026-03-09T22:40:22.374624","MEAN_MOTION":15.33314157,"ECCENTRICITY":0.00054418,"INCLINATION":82.5242,"RA_OF_ASC_NODE":238.1482,"ARG_OF_PERICENTER":197.7479,"MEAN_ANOMALY":162.3574,"EPHEMERIS_TYPE":0,"CLASSIFICATION_TYPE":"U","NORAD_CAT_ID":16986,"ELEMENT_SET_NO":999,"REV_AT_EPOCH":13134,"BSTAR":0.00042191031,"MEAN_MOTION_DOT":0.00013623,"MEAN_MOTION_DDOT":0}]
